KUIPER-00035            
1 63748U 25088AA  25204.57934919 -.00088714  00000+0 -49963-2 0  9993
2 63748  51.8807  49.9101 0004182  80.6733 279.4716 15.13075441 13545
KUIPER-00037            
1 63749U 25088AB  25204.53789078 -.00134454  00000+0 -73782-2 0  9993
2 63749  51.8839  49.5259 0003580 356.7829   3.3124 15.14265562 14336
KUIPER-00038            
1 63750U 25088AC  25204.54029574  .00014043  00000+0  38302-3 0  9993
2 63750  51.8716  44.4513 0006931  64.7890 295.3815 15.37698444 13407
KUIPER-00039            
1 64500U 25134A   25204.34165584  .00025889  00000+0  76114-3 0  9992
2 64500  51.8673 187.0216 0007024 222.9012 137.1427 15.34910468  5835
KUIPER-00040            
1 64501U 25134B   25204.58336806 -.00011797  00000+0 -41152-3 0  9995
2 64501  51.8673 186.2317 0011528 235.3788 207.1796 15.28091871  5402
KUIPER-00041            
1 64502U 25134C   25204.58336806 -.01367337  00000+0 -61875-1 0  9993
2 64502  51.8706 186.2889 0008657 230.4091 150.4583 15.23608080  5401
KUIPER-00042            
1 64503U 25134D   25204.41259787  .00018902  00000+0  56485-3 0  9999
2 64503  51.8646 186.7379 0008727 223.0908 136.9395 15.34582671  5844
KUIPER-00043            
1 64504U 25134E   25204.34317888  .00019818  00000+0  58829-3 0  9990
2 64504  51.8683 187.0328 0008058 216.6290 143.4145 15.34765234  5836
